BEIDOU 3 (C01)          
1 36287U 10001A   21344.57910028 -.00000283  00000+0  00000+0 0  9996
2 36287   1.7669  44.0473 0001257  50.7048 333.5696  1.00266661 43626
BEIDOU 5 (C06)          
1 36828U 10036A   21343.81161935 -.00000057  00000+0  00000+0 0  9995
2 36828  54.1810 177.9741 0023682 174.3511 123.1500  1.00253039 41670
BEIDOU 6 (C04)          
1 37210U 10057A   21344.52132777 -.00000112  00000+0  00000+0 0  9997
2 37210   0.8322  45.6487 0007069 160.5648 220.9865  1.00270015 40749
BEIDOU 7 (C07)          
1 37256U 10068A   21344.58132128 -.00000213  00000+0  00000+0 0  9997
2 37256  50.5528 291.9060 0015957 190.4539 272.6062  1.00253119 40253
BEIDOU 8 (C08)          
1 37384U 11013A   21343.83850616 -.00000198  00000+0  00000+0 0  9998
2 37384  60.0211  56.1489 0019566 190.4623 238.5583  1.00259866 39128
BEIDOU 9 (C09)          
1 37763U 11038A   21344.51507845 -.00000021  00000+0  00000+0 0  9990
2 37763  54.4659 180.4360 0086211 225.3845 314.7755  1.00273927 38105
BEIDOU 10 (C10)         
1 37948U 11073A   21344.01179380 -.00000154  00000+0  00000+0 0  9995
2 37948  50.6659 291.5385 0077262 218.9687  25.3762  1.00254021 36854
BEIDOU 11 (C05)         
1 38091U 12008A   21344.32063319  .00000056  00000+0  00000+0 0  9992
2 38091   1.9371  71.1118 0004514 268.8001 273.4686  1.00272116 35938
BEIDOU 12 (C11)         
1 38250U 12018A   21344.14028001 -.00000091  00000+0  00000+0 0  9999
2 38250  56.7343 359.8138 0024934 250.2635 114.1533  1.86234357 65569
BEIDOU 13 (C12)         
1 38251U 12018B   21343.26142030 -.00000091  00000+0  00000+0 0  9991
2 38251  56.6543 359.1798 0015830 253.1082 286.3739  1.86234179 65549
BEIDOU 15 (C14)         
1 38775U 12050B   21344.14054059  .00000037  00000+0  00000+0 0  9998
2 38775  55.2953 118.0620 0011496 327.3399 278.5763  1.86231305 62933
BEIDOU 16 (C02)         
1 38953U 12059A   21344.59975598 -.00000175  00000+0  00000+0 0  9998
2 38953   1.5226  84.3971 0010647 276.9663  18.0982  1.00268968 33504
BEIDOU 17 (C31)         
1 40549U 15019A   21344.28453454 -.00000184  00000+0  00000+0 0  9999
2 40549  52.2090 314.9491 0036275 191.5592 130.9833  1.00282490 24535
BEIDOU 18 (C57)         
1 40748U 15037A   21344.46615255 -.00000092  00000+0  00000+0 0  9997
2 40748  55.9134 358.1202 0002991 320.8002 216.1141  1.86233358 43393
BEIDOU 19 (C58)         
1 40749U 15037B   21344.26539521 -.00000092  00000+0  00000+0 0  9997
2 40749  55.9161 358.1177 0005985 294.4829 243.1369  1.86232169 43384
BEIDOU 20 (C18)         
1 40938U 15053A   21344.26514103 -.00000152  00000+0  00000+0 0  9991
2 40938  51.7957 278.0478 0043387 195.9755 155.2682  1.00288774 22800
BEIDOU IGSO-6 (C13)     
1 41434U 16021A   21344.53738383 -.00000183  00000+0  00000+0 0  9991
2 41434  57.8277  54.8000 0044969 214.1026 100.0121  1.00278757 20935
BEIDOU-2 G7 (C03)       
1 41586U 16037A   21344.60743947 -.00000354  00000+0  00000+0 0  9996
2 41586   1.5630  65.9528 0007856   2.5610 340.2752  1.00272911 20240
BEIDOU-3 M1 (C19)       
1 43001U 17069A   21344.48013399  .00000038  00000+0  00000+0 0  9991
2 43001  55.4490 118.0252 0007227 286.7496 342.9597  1.86231737 27877
BEIDOU-3 M2 (C20)       
1 43002U 17069B   21344.40728200  .00000038  00000+0  00000+0 0  9998
2 43002  55.4491 118.0634 0005666 318.6888 305.4044  1.86231418 27864
BEIDOU-3 M3 (C27)       
1 43107U 18003A   21344.40621498 -.00000094  00000+0  00000+0 0  9997
2 43107  55.3598 359.1237 0003323  43.5647  25.7716  1.86232513 26638
BEIDOU-3 M4 (C28)       
1 43108U 18003B   21344.23207779 -.00000094  00000+0  00000+0 0  9991
2 43108  55.3543 359.1199 0004237 248.3875 109.1477  1.86230934 26624
BEIDOU-3 M5 (C21)       
1 43207U 18018A   21344.14551777  .00000038  00000+0  00000+0 0  9994
2 43207  55.4083 118.1569 0003923   0.0298 359.9417  1.86231613 26018
BEIDOU-3 M6 (C22)       
1 43208U 18018B   21343.67529005  .00000037  00000+0  00000+0 0  9990
2 43208  55.4075 118.1777 0005317 301.3707  58.5471  1.86231623 26004
BEIDOU-3 M7 (C29)       
1 43245U 18029A   21344.43248626 -.00000093  00000+0  00000+0 0  9998
2 43245  55.2832 356.9039 0001334 257.7992  99.4616  1.86232630 25162
BEIDOU-3 M8 (C30)       
1 43246U 18029B   21344.36569630 -.00000093  00000+0  10000-3 0  9997
2 43246  55.2803 356.9364 0003913 333.7253  25.1334  1.86232954 25153
BEIDOU IGSO-7 (C16)     
1 43539U 18057A   21343.81319075 -.00000072  00000+0  00000+0 0  9990
2 43539  55.0620 177.3882 0040086 220.9620  86.5513  1.00268160 12600
BEIDOU-3 M9 (C23)       
1 43581U 18062A   21343.87473003 -.00000020  00000+0  00000+0 0  9994
2 43581  54.3365 238.5812 0004050 301.1111 299.0395  1.86231896 22897
BEIDOU-3 M10 (C24)      
1 43582U 18062B   21344.27611751 -.00000023  00000+0  00000+0 0  9997
2 43582  54.3359 238.5569 0006521   1.6901 239.1549  1.86232428 22904
BEIDOU-3 M11 (C25)      
1 43602U 18067A   21343.79332838 -.00000017  00000+0  00000+0 0  9990
2 43602  54.4155 237.1716 0007715   4.6760 314.2656  1.86231574 22380
BEIDOU-3 M12 (C26)      
1 43603U 18067B   21344.34792611 -.00000021  00000+0  00000+0 0  9997
2 43603  54.4123 237.1200 0004918 354.4537 246.7387  1.86231489 22413
BEIDOU-3 M13 (C32)      
1 43622U 18072A   21344.34206734  .00000037  00000+0  00000+0 0  9996
2 43622  55.3746 117.7128 0004270 275.1020 352.0297  1.86231554 21923
BEIDOU-3 M14 (C33)      
1 43623U 18072B   21343.66793699  .00000036  00000+0  00000+0 0  9991
2 43623  55.3758 117.7268 0002264 324.6198 300.7768  1.86231608 21911
BEIDOU-3 M15 (C34)      
1 43647U 18078A   21344.09140113 -.00000093  00000+0  10000-3 0  9997
2 43647  55.1777 357.0891 0006369 346.8350  97.7515  1.86232560 21431
BEIDOU-3 M16 (C35)      
1 43648U 18078B   21344.36563448 -.00000093  00000+0  00000+0 0  9993
2 43648  55.1737 357.0874 0003896 352.4174 184.1741  1.86232290 21452
BEIDOU-3 G1 (C59)       
1 43683U 18085A   21344.50723237 -.00000277  00000+0  00000+0 0  9994
2 43683   0.8576 200.5566 0004645  41.7896 159.6544  1.00276585 11516
BEIDOU-3 M17 (C36)      
1 43706U 18093A   21344.25495954 -.00000022  00000+0  00000+0 0  9991
2 43706  54.4165 238.4397 0008740 284.1163  75.8531  1.86231857 20818
BEIDOU-3 M18 (C37)      
1 43707U 18093B   21344.01015058 -.00000021  00000+0  00000+0 0  9998
2 43707  54.4181 238.4386 0008492 308.9650 337.9082  1.86232226 20796
BEIDOU-3 IGSO-1 (C38)   
1 44204U 19023A   21344.60188508 -.00000239  00000+0  00000+0 0  9992
2 44204  56.2796  55.0114 0023208 191.6856 168.3088  1.00267308  9828
BEIDOU-2 G8             
1 44231U 19027A   21344.57997247 -.00000248  00000+0  00000+0 0  9990
2 44231   0.4359  57.7768 0006427 154.3101 220.7336  1.00268143  9536
BEIDOU-3 IGSO-2 (C39)   
1 44337U 19035A   21344.43117799 -.00000069  00000+0  00000+0 0  9998
2 44337  55.0997 173.4145 0020751 176.9187   2.5207  1.00258301  9158
BEIDOU-3 M23 (C45)      
1 44542U 19061A   21343.53504209 -.00000017  00000+0  10000-3 0  9999
2 44542  54.6429 238.5691 0009302 341.4289 299.4027  1.86231332 15042
BEIDOU-3 M24 (C46)      
1 44543U 19061B   21344.59304549 -.00000024  00000+0  10000-3 0  9990
2 44543  54.6419 238.5032 0006350 332.6606 208.5846  1.86231895 15062
BEIDOU-3 IGSO-3         
1 44709U 19073A   21343.78525361 -.00000198  00000+0  00000+0 0  9991
2 44709  57.5699 298.3481 0018855 187.3852 355.0699  1.00264538  7905
BEIDOU-3 M21            
1 44793U 19078A   21344.56645362 -.00000093  00000+0  10000-3 0  9999
2 44793  55.0252 357.1196 0005771 355.9725   1.3169  1.86232328 13926
BEIDOU-3 M22            
1 44794U 19078B   21344.16619390 -.00000093  00000+0  00000+0 0  9993
2 44794  55.0006 357.1282 0003900 345.3141  14.9229  1.86232809 13928
BEIDOU-3 M19            
1 44864U 19090A   21344.61405319  .00000037  00000+0  00000+0 0  9996
2 44864  55.3088 117.9243 0014573 262.8537 232.2256  1.86231858 13511
BEIDOU-3 M20            
1 44865U 19090B   21344.13979432  .00000037  00000+0  00000+0 0  9996
2 44865  55.3111 117.9715 0012712 279.2024 347.8033  1.86231819 13477
BEIDOU-3 G2             
1 45344U 20017A   21344.56706417 -.00000143  00000+0  00000+0 0  9997
2 45344   2.2256 343.4097 0001369 195.1796 185.1190  1.00271035  6725
BEIDOU-3 G3             
1 45807U 20040A   21344.23799198 -.00000355  00000+0  00000+0 0  9994
2 45807   1.8771 299.8472 0009349 345.0555 350.4978  1.00273935  5532
